{
  "type": "FeatureCollection",
  "features": [
    {
      "type": "Feature",
      "properties": {
        "norad_id": 36744,
        "name": "COMS 1",
        "group": "weather",
        "lat": 4.168993108917706,
        "lon": 153.03792326659772,
        "alt_km": 35787.640277069426,
        "timestamp": "2025-12-03T20:47:57.858912+00:00",
        "meta_object_name": "COMS 1",
        "meta_object_id": "2010-032A",
        "meta_epoch": "2025-12-03T10:38:21.640992",
        "meta_mean_motion": 1.0026981,
        "meta_eccentricity": 0.0001103,
        "meta_inclination": 4.3175,
        "meta_ra_of_asc_node": 78.0982,
        "meta_arg_of_pericenter": 183.5844,
        "meta_mean_anomaly": 98.6094,
        "meta_ephemeris_type": 0,
        "meta_classification_type": "U",
        "meta_norad_cat_id": 36744,
        "meta_element_set_no": 999,
        "meta_rev_at_epoch": 4912,
        "meta_bstar": 0,
        "meta_mean_motion_dot": -3.28e-06,
        "meta_mean_motion_ddot": 0,
        "tle_line1": "1 36744U 10032A   25337.44330603 -.00000328  00000+0  00000+0 0  9995",
        "tle_line2": "2 36744   4.3175  78.0982 0001103 183.5844  98.6094  1.00269810 49127"
      },
      "geometry": {
        "type": "Point",
        "coordinates": [
          153.03792326659772,
          4.168993108917706
        ]
      }
    },
    {
      "type": "Feature",
      "properties": {
        "norad_id": 37214,
        "name": "FENGYUN 3B",
        "group": "weather",
        "lat": -46.34669146157618,
        "lon": -171.77192482638583,
        "alt_km": 864.534009972379,
        "timestamp": "2025-12-03T20:47:57.858924+00:00",
        "meta_object_name": "FENGYUN 3B",
        "meta_object_id": "2010-059A",
        "meta_epoch": "2025-12-03T11:44:50.576064",
        "meta_mean_motion": 14.14785545,
        "meta_eccentricity": 0.0022444,
        "meta_inclination": 98.9921,
        "meta_ra_of_asc_node": 17.4017,
        "meta_arg_of_pericenter": 23.8286,
        "meta_mean_anomaly": 83.3589,
        "meta_ephemeris_type": 0,
        "meta_classification_type": "U",
        "meta_norad_cat_id": 37214,
        "meta_element_set_no": 999,
        "meta_rev_at_epoch": 77975,
        "meta_bstar": 0.00010265,
        "meta_mean_motion_dot": 1.53e-06,
        "meta_mean_motion_ddot": 0,
        "tle_line1": "1 37214U 10059A   25337.48947426  .00000153  00000+0  10265-3 0  9991",
        "tle_line2": "2 37214  98.9921  17.4017 0022444  23.8286  83.3589 14.14785545779757"
      },
      "geometry": {
        "type": "Point",
        "coordinates": [
          -171.77192482638583,
          -46.34669146157618
        ]
      }
    },
    {
      "type": "Feature",
      "properties": {
        "norad_id": 37849,
        "name": "SUOMI NPP",
        "group": "weather",
        "lat": -78.56021126810842,
        "lon": -34.94845917518664,
        "alt_km": 835.4008107778864,
        "timestamp": "2025-12-03T20:47:57.858936+00:00",
        "meta_object_name": "SUOMI NPP",
        "meta_object_id": "2011-061A",
        "meta_epoch": "2025-12-03T11:02:17.850912",
        "meta_mean_motion": 14.19509901,
        "meta_eccentricity": 0.0001899,
        "meta_inclination": 98.7759,
        "meta_ra_of_asc_node": 274.8857,
        "meta_arg_of_pericenter": 136.8156,
        "meta_mean_anomaly": 223.3169,
        "meta_ephemeris_type": 0,
        "meta_classification_type": "U",
        "meta_norad_cat_id": 37849,
        "meta_element_set_no": 999,
        "meta_rev_at_epoch": 73067,
        "meta_bstar": 9.5433e-05,
        "meta_mean_motion_dot": 1.57e-06,
        "meta_mean_motion_ddot": 0,
        "tle_line1": "1 37849U 11061A   25337.45992883  .00000157  00000+0  95433-4 0  9998",
        "tle_line2": "2 37849  98.7759 274.8857 0001899 136.8156 223.3169 14.19509901730674"
      },
      "geometry": {
        "type": "Point",
        "coordinates": [
          -34.94845917518664,
          -78.56021126810842
        ]
      }
    },
    {
      "type": "Feature",
      "properties": {
        "norad_id": 38552,
        "name": "METEOSAT-10 (MSG-3)",
        "group": "weather",
        "lat": -2.4909353407608137,
        "lon": 25.108534331809604,
        "alt_km": 35786.96755153506,
        "timestamp": "2025-12-03T20:47:57.858948+00:00",
        "meta_object_name": "METEOSAT-10 (MSG-3)",
        "meta_object_id": "2012-035B",
        "meta_epoch": "2025-12-03T01:46:14.361312",
        "meta_mean_motion": 1.00272334,
        "meta_eccentricity": 7.5e-05,
        "meta_inclination": 4.2044,
        "meta_ra_of_asc_node": 61.7366,
        "meta_arg_of_pericenter": 219.9554,
        "meta_mean_anomaly": 177.1386,
        "meta_ephemeris_type": 0,
        "meta_classification_type": "U",
        "meta_norad_cat_id": 38552,
        "meta_element_set_no": 999,
        "meta_rev_at_epoch": 4889,
        "meta_bstar": 0,
        "meta_mean_motion_dot": 1.1e-07,
        "meta_mean_motion_ddot": 0,
        "tle_line1": "1 38552U 12035B   25337.07377733  .00000011  00000+0  00000+0 0  9991",
        "tle_line2": "2 38552   4.2044  61.7366 0000750 219.9554 177.1386  1.00272334 48899"
      },
      "geometry": {
        "type": "Point",
        "coordinates": [
          25.108534331809604,
          -2.4909353407608137
        ]
      }
    },
    {
      "type": "Feature",
      "properties": {
        "norad_id": 38771,
        "name": "METOP-B",
        "group": "weather",
        "lat": 67.52567960767485,
        "lon": 6.3014122988325125,
        "alt_km": 814.156631913037,
        "timestamp": "2025-12-03T20:47:57.858959+00:00",
        "meta_object_name": "METOP-B",
        "meta_object_id": "2012-049A",
        "meta_epoch": "2025-12-03T10:20:18.292128",
        "meta_mean_motion": 14.21402737,
        "meta_eccentricity": 0.0002494,
        "meta_inclination": 98.6813,
        "meta_ra_of_asc_node": 27.5468,
        "meta_arg_of_pericenter": 165.2397,
        "meta_mean_anomaly": 194.8854,
        "meta_ephemeris_type": 0,
        "meta_classification_type": "U",
        "meta_norad_cat_id": 38771,
        "meta_element_set_no": 999,
        "meta_rev_at_epoch": 68545,
        "meta_bstar": 0.00012743,
        "meta_mean_motion_dot": 2.35e-06,
        "meta_mean_motion_ddot": 0,
        "tle_line1": "1 38771U 12049A   25337.43076727  .00000235  00000+0  12743-3 0  9997",
        "tle_line2": "2 38771  98.6813  27.5468 0002494 165.2397 194.8854 14.21402737685455"
      },
      "geometry": {
        "type": "Point",
        "coordinates": [
          6.3014122988325125,
          67.52567960767485
        ]
      }
    },
    {
      "type": "Feature",
      "properties": {
        "norad_id": 39216,
        "name": "INSAT-3D",
        "group": "weather",
        "lat": 1.3228329651474033,
        "lon": 154.41381169503535,
        "alt_km": 35784.82985853461,
        "timestamp": "2025-12-03T20:47:57.858971+00:00",
        "meta_object_name": "INSAT-3D",
        "meta_object_id": "2013-038B",
        "meta_epoch": "2025-12-03T10:56:51.856800",
        "meta_mean_motion": 1.00273796,
        "meta_eccentricity": 0.0001753,
        "meta_inclination": 1.4189,
        "meta_ra_of_asc_node": 85.096,
        "meta_arg_of_pericenter": 154.7686,
        "meta_mean_anomaly": 126.4141,
        "meta_ephemeris_type": 0,
        "meta_classification_type": "U",
        "meta_norad_cat_id": 39216,
        "meta_element_set_no": 999,
        "meta_rev_at_epoch": 4511,
        "meta_bstar": 0,
        "meta_mean_motion_dot": -3.21e-06,
        "meta_mean_motion_ddot": 0,
        "tle_line1": "1 39216U 13038B   25337.45615575 -.00000321  00000+0  00000+0 0  9999",
        "tle_line2": "2 39216   1.4189  85.0960 0001753 154.7686 126.4141  1.00273796 45112"
      },
      "geometry": {
        "type": "Point",
        "coordinates": [
          154.41381169503535,
          1.3228329651474033
        ]
      }
    },
    {
      "type": "Feature",
      "properties": {
        "norad_id": 39260,
        "name": "FENGYUN 3C",
        "group": "weather",
        "lat": 40.90048805177441,
        "lon": 143.40082777803522,
        "alt_km": 835.665925833192,
        "timestamp": "2025-12-03T20:47:57.858982+00:00",
        "meta_object_name": "FENGYUN 3C",
        "meta_object_id": "2013-052A",
        "meta_epoch": "2025-12-03T13:21:40.702176",
        "meta_mean_motion": 14.15691663,
        "meta_eccentricity": 0.0013833,
        "meta_inclination": 98.4754,
        "meta_ra_of_asc_node": 315.6849,
        "meta_arg_of_pericenter": 223.656,
        "meta_mean_anomaly": 136.3522,
        "meta_ephemeris_type": 0,
        "meta_classification_type": "U",
        "meta_norad_cat_id": 39260,
        "meta_element_set_no": 999,
        "meta_rev_at_epoch": 63088,
        "meta_bstar": 0.00011685,
        "meta_mean_motion_dot": 1.88e-06,
        "meta_mean_motion_ddot": 0,
        "tle_line1": "1 39260U 13052A   25337.55672109  .00000188  00000+0  11685-3 0  9996",
        "tle_line2": "2 39260  98.4754 315.6849 0013833 223.6560 136.3522 14.15691663630886"
      },
      "geometry": {
        "type": "Point",
        "coordinates": [
          143.40082777803522,
          40.90048805177441
        ]
      }
    }
  ]
}